{
  "type": "FeatureCollection",
  "features": [
    {
      "type": "Feature",
      "properties": {
        "norad_id": 31058,
        "name": "FENGYUN 1C DEB",
        "group": "fengyun-1c-debris",
        "lat": -39.34978179493209,
        "lon": 118.2104142665141,
        "alt_km": 697.8228598375454,
        "timestamp": "2025-12-21T07:34:34.796801+00:00",
        "meta_object_name": "FENGYUN 1C DEB",
        "meta_object_id": "1999-025BFC",
        "meta_epoch": "2025-12-20T02:56:29.316192",
        "meta_mean_motion": 14.76439608,
        "meta_eccentricity": 0.00952206,
        "meta_inclination": 99.5678,
        "meta_ra_of_asc_node": 304.7484,
        "meta_arg_of_pericenter": 83.7203,
        "meta_mean_anomaly": 277.4837,
        "meta_ephemeris_type": 0,
        "meta_classification_type": "U",
        "meta_norad_cat_id": 31058,
        "meta_element_set_no": 999,
        "meta_rev_at_epoch": 99658,
        "meta_bstar": 0.00070520247,
        "meta_mean_motion_dot": 5.213e-05,
        "meta_mean_motion_ddot": 0,
        "tle_line1": "1 31058U 99025BFC 25354.12256153  .00005213  00000+0  70520-3 0  9993",
        "tle_line2": "2 31058  99.5678 304.7484 0095220  83.7203 277.4837 14.76439608996587"
      },
      "geometry": {
        "type": "Point",
        "coordinates": [
          118.2104142665141,
          -39.34978179493209
        ]
      }
    },
    {
      "type": "Feature",
      "properties": {
        "norad_id": 31062,
        "name": "FENGYUN 1C DEB",
        "group": "fengyun-1c-debris",
        "lat": 18.235747203645403,
        "lon": 0.22299194412867257,
        "alt_km": 1065.2485286261171,
        "timestamp": "2025-12-21T07:34:34.796810+00:00",
        "meta_object_name": "FENGYUN 1C DEB",
        "meta_object_id": "1999-025BFG",
        "meta_epoch": "2025-12-20T18:39:16.331040",
        "meta_mean_motion": 13.75695687,
        "meta_eccentricity": 0.01714227,
        "meta_inclination": 98.9966,
        "meta_ra_of_asc_node": 176.7226,
        "meta_arg_of_pericenter": 296.4526,
        "meta_mean_anomaly": 81.3659,
        "meta_ephemeris_type": 0,
        "meta_classification_type": "U",
        "meta_norad_cat_id": 31062,
        "meta_element_set_no": 999,
        "meta_rev_at_epoch": 94344,
        "meta_bstar": 0.00020778583,
        "meta_mean_motion_dot": 1.81e-06,
        "meta_mean_motion_ddot": 0,
        "tle_line1": "1 31062U 99025BFG 25354.77727235  .00000181  00000+0  20779-3 0  9993",
        "tle_line2": "2 31062  98.9966 176.7226 0171422 296.4526  81.3659 13.75695687943446"
      },
      "geometry": {
        "type": "Point",
        "coordinates": [
          0.22299194412867257,
          18.235747203645403
        ]
      }
    },
    {
      "type": "Feature",
      "properties": {
        "norad_id": 31064,
        "name": "FENGYUN 1C DEB",
        "group": "fengyun-1c-debris",
        "lat": -53.220176121207935,
        "lon": -10.583313301620821,
        "alt_km": 674.8171668474833,
        "timestamp": "2025-12-21T07:34:34.796819+00:00",
        "meta_object_name": "FENGYUN 1C DEB",
        "meta_object_id": "1999-025BFJ",
        "meta_epoch": "2025-12-20T05:06:25.081920",
        "meta_mean_motion": 14.22151222,
        "meta_eccentricity": 0.02410584,
        "meta_inclination": 98.5742,
        "meta_ra_of_asc_node": 336.6996,
        "meta_arg_of_pericenter": 339.9035,
        "meta_mean_anomaly": 84.1501,
        "meta_ephemeris_type": 0,
        "meta_classification_type": "U",
        "meta_norad_cat_id": 31064,
        "meta_element_set_no": 999,
        "meta_rev_at_epoch": 97361,
        "meta_bstar": 0.00026590229,
        "meta_mean_motion_dot": 7.43e-06,
        "meta_mean_motion_ddot": 0,
        "tle_line1": "1 31064U 99025BFJ 25354.21279030  .00000743  00000+0  26590-3 0  9990",
        "tle_line2": "2 31064  98.5742 336.6996 0241058 339.9035  84.1501 14.22151222973612"
      },
      "geometry": {
        "type": "Point",
        "coordinates": [
          -10.583313301620821,
          -53.220176121207935
        ]
      }
    },
    {
      "type": "Feature",
      "properties": {
        "norad_id": 31065,
        "name": "FENGYUN 1C DEB",
        "group": "fengyun-1c-debris",
        "lat": 62.79854470077051,
        "lon": -2.6796406515025604,
        "alt_km": 778.2427653962395,
        "timestamp": "2025-12-21T07:34:34.796828+00:00",
        "meta_object_name": "FENGYUN 1C DEB",
        "meta_object_id": "1999-025BFK",
        "meta_epoch": "2025-12-20T07:44:23.606880",
        "meta_mean_motion": 14.28204774,
        "meta_eccentricity": 0.00348587,
        "meta_inclination": 98.4646,
        "meta_ra_of_asc_node": 13.1998,
        "meta_arg_of_pericenter": 9.0765,
        "meta_mean_anomaly": 351.1039,
        "meta_ephemeris_type": 0,
        "meta_classification_type": "U",
        "meta_norad_cat_id": 31065,
        "meta_element_set_no": 999,
        "meta_rev_at_epoch": 64686,
        "meta_bstar": 0.00062313484,
        "meta_mean_motion_dot": 1.52e-05,
        "meta_mean_motion_ddot": 0,
        "tle_line1": "1 31065U 99025BFK 25354.32249545  .00001520  00000+0  62313-3 0  9998",
        "tle_line2": "2 31065  98.4646  13.1998 0034858   9.0765 351.1039 14.28204774646861"
      },
      "geometry": {
        "type": "Point",
        "coordinates": [
          -2.6796406515025604,
          62.79854470077051
        ]
      }
    },
    {
      "type": "Feature",
      "properties": {
        "norad_id": 31068,
        "name": "FENGYUN 1C DEB",
        "group": "fengyun-1c-debris",
        "lat": -57.83934356444882,
        "lon": 143.1530757967093,
        "alt_km": 966.7135301435892,
        "timestamp": "2025-12-21T07:34:34.796837+00:00",
        "meta_object_name": "FENGYUN 1C DEB",
        "meta_object_id": "1999-025BFN",
        "meta_epoch": "2025-12-18T05:11:10.079232",
        "meta_mean_motion": 14.09194848,
        "meta_eccentricity": 0.01658276,
        "meta_inclination": 98.6292,
        "meta_ra_of_asc_node": 334.1581,
        "meta_arg_of_pericenter": 102.7701,
        "meta_mean_anomaly": 259.2059,
        "meta_ephemeris_type": 0,
        "meta_classification_type": "U",
        "meta_norad_cat_id": 31068,
        "meta_element_set_no": 999,
        "meta_rev_at_epoch": 96432,
        "meta_bstar": 9.338264e-05,
        "meta_mean_motion_dot": 1.44e-06,
        "meta_mean_motion_ddot": 0,
        "tle_line1": "1 31068U 99025BFN 25352.21608888  .00000144  00000+0  93383-4 0  9999",
        "tle_line2": "2 31068  98.6292 334.1581 0165827 102.7701 259.2059 14.09194848964322"
      },
      "geometry": {
        "type": "Point",
        "coordinates": [
          143.1530757967093,
          -57.83934356444882
        ]
      }
    },
    {
      "type": "Feature",
      "properties": {
        "norad_id": 31069,
        "name": "FENGYUN 1C DEB",
        "group": "fengyun-1c-debris",
        "lat": -80.74624867338584,
        "lon": -103.24021373470093,
        "alt_km": 768.6225651961977,
        "timestamp": "2025-12-21T07:34:34.796846+00:00",
        "meta_object_name": "FENGYUN 1C DEB",
        "meta_object_id": "1999-025BFP",
        "meta_epoch": "2025-12-20T17:09:56.113056",
        "meta_mean_motion": 14.57151959,
        "meta_eccentricity": 0.01043248,
        "meta_inclination": 99.0993,
        "meta_ra_of_asc_node": 155.736,
        "meta_arg_of_pericenter": 53.4161,
        "meta_mean_anomaly": 307.6579,
        "meta_ephemeris_type": 0,
        "meta_classification_type": "U",
        "meta_norad_cat_id": 31069,
        "meta_element_set_no": 999,
        "meta_rev_at_epoch": 98802,
        "meta_bstar": 0.00037067692,
        "meta_mean_motion_dot": 1.741e-05,
        "meta_mean_motion_ddot": 0,
        "tle_line1": "1 31069U 99025BFP 25354.71523279  .00001741  00000+0  37068-3 0  9998",
        "tle_line2": "2 31069  99.0993 155.7360 0104324  53.4161 307.6579 14.57151959988022"
      },
      "geometry": {
        "type": "Point",
        "coordinates": [
          -103.24021373470093,
          -80.74624867338584
        ]
      }
    },
    {
      "type": "Feature",
      "properties": {
        "norad_id": 31071,
        "name": "FENGYUN 1C DEB",
        "group": "fengyun-1c-debris",
        "lat": -47.13621219302529,
        "lon": -116.15718323044783,
        "alt_km": 688.576634132989,
        "timestamp": "2025-12-21T07:34:34.796855+00:00",
        "meta_object_name": "FENGYUN 1C DEB",
        "meta_object_id": "1999-025BFR",
        "meta_epoch": "2025-12-17T11:36:27.822240",
        "meta_mean_motion": 14.52669079,
        "meta_eccentricity": 0.00558821,
        "meta_inclination": 99.0414,
        "meta_ra_of_asc_node": 69.5951,
        "meta_arg_of_pericenter": 267.3702,
        "meta_mean_anomaly": 92.1094,
        "meta_ephemeris_type": 0,
        "meta_classification_type": "U",
        "meta_norad_cat_id": 31071,
        "meta_element_set_no": 999,
        "meta_rev_at_epoch": 65563,
        "meta_bstar": 0.00084122866,
        "meta_mean_motion_dot": 3.464e-05,
        "meta_mean_motion_ddot": 0,
        "tle_line1": "1 31071U 99025BFR 25351.48365535  .00003464  00000+0  84123-3 0  9999",
        "tle_line2": "2 31071  99.0414  69.5951 0055882 267.3702  92.1094 14.52669079655630"
      },
      "geometry": {
        "type": "Point",
        "coordinates": [
          -116.15718323044783,
          -47.13621219302529
        ]
      }
    }
  ]
}